{"type": "FeatureCollection", "features": [ {"type": "Feature", "properties": {"norad_id": 64901, "name": "CO3D 4", "group": "resource", "lat": -15.966937268658725, "lon": 59.3793492298685, "alt_km": 510.4216312313547, "timestamp": "2025-12-06T18:50:09.828884+00:00", "meta": {"OBJECT_NAME": "CO3D 4", "OBJECT_ID": "2025-156C", "EPOCH": "2025-12-06T06:16:07.803552", "MEAN_MOTION": 15.20202687, "ECCENTRICITY": 0.00010549, "INCLINATION": 97.4346, "RA_OF_ASC_NODE": 56.722, "ARG_OF_PERICENTER": 229.664, "MEAN_ANOMALY": 130.4503, "EPHEMERIS_TYPE": 0, "CLASSIFICATION_TYPE": "U", "NORAD_CAT_ID": 64901, "ELEMENT_SET_NO": 999, "REV_AT_EPOCH": 2022, "BSTAR": 0.0004899771, "MEAN_MOTION_DOT": 0.00010554, "MEAN_MOTION_DDOT": 0}, "tle": {"line1": "1 64901U 25156C   25340.26120143  .00010554  00000+0  48998-3 0  9997", "line2": "2 64901  97.4346  56.7220 0001054 229.6640 130.4503 15.20202687 20221"}}, "geometry": {"type": "Point", "coordinates": [59.3793492298685, -15.966937268658725]}}, {"type": "Feature", "properties": {"norad_id": 64902, "name": "CO3D 2", "group": "resource", "lat": 13.37447384497058, "lon": -121.08567282830329, "alt_km": 506.1590982792595, "timestamp": "2025-12-06T18:50:09.828894+00:00", "meta": {"OBJECT_NAME": "CO3D 2", "OBJECT_ID": "2025-156D", "EPOCH": "2025-12-05T21:34:11.594784", "MEAN_MOTION": 15.20206227, "ECCENTRICITY": 8.478e-05, "INCLINATION": 97.4344, "RA_OF_ASC_NODE": 56.2618, "ARG_OF_PERICENTER": 104.2207, "MEAN_ANOMALY": 255.9122, "EPHEMERIS_TYPE": 0, "CLASSIFICATION_TYPE": "U", "NORAD_CAT_ID": 64902, "ELEMENT_SET_NO": 999, "REV_AT_EPOCH": 2016, "BSTAR": 2.7929626e-05, "MEAN_MOTION_DOT": 5.37e-06, "MEAN_MOTION_DDOT": 0}, "tle": {"line1": "1 64902U 25156D   25339.89874531  .00000537  00000+0  27930-4 0  9996", "line2": "2 64902  97.4344  56.2618 0000847 104.2207 255.9122 15.20206227 20169"}}, "geometry": {"type": "Point", "coordinates": [-121.08567282830329, 13.37447384497058]}}, {"type": "Feature", "properties": {"norad_id": 64903, "name": "CO3D 1", "group": "resource", "lat": 14.193248211709774, "lon": -120.97100509029731, "alt_km": 505.9217520908769, "timestamp": "2025-12-06T18:50:09.828903+00:00", "meta": {"OBJECT_NAME": "CO3D 1", "OBJECT_ID": "2025-156E", "EPOCH": "2025-12-06T05:28:20.228160", "MEAN_MOTION": 15.20209887, "ECCENTRICITY": 0.0001033, "INCLINATION": 97.4344, "RA_OF_ASC_NODE": 56.5876, "ARG_OF_PERICENTER": 105.2581, "MEAN_ANOMALY": 254.8768, "EPHEMERIS_TYPE": 0, "CLASSIFICATION_TYPE": "U", "NORAD_CAT_ID": 64903, "ELEMENT_SET_NO": 999, "REV_AT_EPOCH": 2021, "BSTAR": 0.00023543491, "MEAN_MOTION_DOT": 5.034e-05, "MEAN_MOTION_DDOT": 0}, "tle": {"line1": "1 64903U 25156E   25340.22801190  .00005034  00000+0  23543-3 0  9999", "line2": "2 64903  97.4344  56.5876 0001033 105.2581 254.8768 15.20209887 20218"}}, "geometry": {"type": "Point", "coordinates": [-120.97100509029731, 14.193248211709774]}}, {"type": "Feature", "properties": {"norad_id": 66514, "name": "SENTINEL-6B", "group": "resource", "lat": -26.662639171128653, "lon": 161.93251667901134, "alt_km": 1318.572973635958, "timestamp": "2025-12-06T18:50:09.828913+00:00", "meta": {"OBJECT_NAME": "SENTINEL-6B", "OBJECT_ID": "2025-264A", "EPOCH": "2025-12-05T07:31:22.416096", "MEAN_MOTION": 12.8587776, "ECCENTRICITY": 0.00115487, "INCLINATION": 66.0393, "RA_OF_ASC_NODE": 177.917, "ARG_OF_PERICENTER": 268.403, "MEAN_ANOMALY": 91.5665, "EPHEMERIS_TYPE": 0, "CLASSIFICATION_TYPE": "U", "NORAD_CAT_ID": 66514, "ELEMENT_SET_NO": 999, "REV_AT_EPOCH": 233, "BSTAR": 0.0002937849, "MEAN_MOTION_DOT": 1.1e-07, "MEAN_MOTION_DDOT": 0}, "tle": {"line1": "1 66514U 25264A   25339.31345389  .00000011  00000+0  29378-3 0  9992", "line2": "2 66514  66.0393 177.9170 0011548 268.4030  91.5665 12.85877760  2336"}}, "geometry": {"type": "Point", "coordinates": [161.93251667901134, -26.662639171128653]}}]}